[{"OBJECT_NAME":"GEISAT PRECURSOR","OBJECT_ID":"2023-084C","EPOCH":"2026-03-09T22:20:25.833120","MEAN_MOTION":15.33054389,"ECCENTRICITY":0.00051675,"INCLINATION":97.6055,"RA_OF_ASC_NODE":206.8263,"ARG_OF_PERICENTER":345.1842,"MEAN_ANOMALY":14.9247,"EPHEMERIS_TYPE":0,"CLASSIFICATION_TYPE":"U","NORAD_CAT_ID":56934,"ELEMENT_SET_NO":999,"REV_AT_EPOCH":15231,"BSTAR":0.00033857167,"MEAN_MOTION_DOT":0.00010736,"MEAN_MOTION_DDOT":0},{"OBJECT_NAME":"STARLINK-35664","OBJECT_ID":"2025-244T","EPOCH":"2026-03-09T22:00:01.999584","MEAN_MOTION":15.3016734,"ECCENTRICITY":0.00011347,"INCLINATION":53.1568,"RA_OF_ASC_NODE":229.0255,"ARG_OF_PERICENTER":68.1486,"MEAN_ANOMALY":228.3863,"EPHEMERIS_TYPE":0,"CLASSIFICATION_TYPE":"U","NORAD_CAT_ID":66223,"ELEMENT_SET_NO":999,"REV_AT_EPOCH":581,"BSTAR":0.0026446014,"MEAN_MOTION_DOT":0.0007872,"MEAN_MOTION_DDOT":0}]
